{
  "type": "FeatureCollection",
  "totalFeatures": 24,
  "features": [
    {
      "type": "Feature",
      "id": "barrio_contorno.1",
      "geometry": {
        "type": "MultiPolygon",
        "coordinates": [
          [
            [
              [
                -2.524053708173727,
                42.495342966925584
              ],
              [
                -2.519222763029487,
                42.49531558942894
              ],
              [
                -2.5165641905462954,
                42.49024612820968
              ],
              [
                -2.5166608231060286,
                42.488022086319134
              ],
              [
                -2.520446636807312,
                42.48803798941747
              ],
              [
                -2.5205899456232443,
                42.48999886942197
              ],
              [
                -2.524094675725501,
                42.49001347599727
              ],
              [
                -2.524053708173727,
                42.495342966925584
              ]
            ]
          ]
        ]
      },
      "geometry_name": "geom",
      "properties": {
        "id": 19688912,
        "cod_barrio": "16",
        "descripcio": "El Cortijo",
        "fme_geomat": null
      }
    },
    {
      "type": "Feature",
      "id": "barrio_contorno.2",
      "geometry": {
        "type": "MultiPolygon",
        "coordinates": [
          [
            [
              [
                -2.4863825187351014,
                42.457615358291285
              ],
              [
                -2.4863997259384663,
                42.46067989489596
              ],
              [
                -2.4859762314236113,
                42.4633828485587
              ],
              [
                -2.4838764410087997,
                42.46438968372583
              ],
              [
                -2.4758411474788997,
                42.463952195516235
              ],
              [
                -2.4751597460799903,
                42.46240782504325
              ],
              [
                -2.4753653320406137,
                42.461505482908215
              ],
              [
                -2.474907587351918,
                42.460388041230246
              ],
              [
                -2.479672467185046,
                42.4592580411814
              ],
              [
                -2.4827565860408054,
                42.458500680018055
              ],
              [
                -2.4863825187351014,
                42.457615358291285
              ]
            ]
          ]
        ]
      },
      "geometry_name": "geom",
      "properties": {
        "id": 19688920,
        "cod_barrio": "15",
        "descripcio": "Yagüe",
        "fme_geomat": null
      }
    },
    {
      "type": "Feature",
      "id": "barrio_contorno.3",
      "geometry": {
        "type": "MultiPolygon",
        "coordinates": [
          [
            [
              [
                -2.4863825187351014,
                42.457615358291285
              ],
              [
                -2.4791305522756244,
                42.459385877341134
              ],
              [
                -2.474439080165086,
                42.460499818694586
              ],
              [
                -2.473353590949397,
                42.45817752573604
              ],
              [
                -2.4720777269079086,
                42.45597968027745
              ],
              [
                -2.4746925749362116,
                42.456105672782826
              ],
              [
                -2.477569555970887,
                42.45562784636085
              ],
              [
                -2.4800077017305524,
                42.45529658230577
              ],
              [
                -2.481595009236397,
                42.45546870666176
              ],
              [
                -2.4832078286015715,
                42.456131926613565
              ],
              [
                -2.4843536697978075,
                42.45681906007696
              ],
              [
                -2.4863825187351014,
                42.457615358291285
              ]
            ]
          ]
        ]
      },
      "geometry_name": "geom",
      "properties": {
        "id": 19688927,
        "cod_barrio": "14",
        "descripcio": "El Arco",
        "fme_geomat": null
      }
    },
    {
      "type": "Feature",
      "id": "barrio_contorno.4",
      "geometry": {
        "type": "MultiPolygon",
        "coordinates": [
          [
            [
              [
                -2.479758293694704,
                42.464165542128015
              ],
              [
                -2.47854500850958,
                42.469474238282736
              ],
              [
                -2.4770195919059197,
                42.470630066044656
              ],
              [
                -2.475800125655522,
                42.47022637178496
              ],
              [
                -2.472953209542603,
                42.47011751131418
              ],
              [
                -2.4704013209236644,
                42.46984253318663
              ],
              [
                -2.468407254787879,
                42.46937827027851
              ],
              [
                -2.4672125415391397,
                42.46911468610475
              ],
              [
                -2.467473220037305,
                42.46818682249878
              ],
              [
                -2.4688393776574133,
                42.464478679123296
              ],
              [
                -2.4753268075235817,
                42.46278647765407
              ],
              [
                -2.4758411474788997,
                42.463952195516235
              ],
              [
                -2.479758293694704,
                42.464165542128015
              ]
            ]
          ]
        ]
      },
      "geometry_name": "geom",
      "properties": {
        "id": 19688934,
        "cod_barrio": "17",
        "descripcio": "Valdegastea",
        "fme_geomat": null
      }
    },
    {
      "type": "Feature",
      "id": "barrio_contorno.5",
      "geometry": {
        "type": "MultiPolygon",
        "coordinates": [
          [
            [
              [
                -2.4573420721259076,
                42.45498305628404
              ],
              [
                -2.4580539027961663,
                42.45145593355937
              ],
              [
                -2.4586376390447,
                42.447904882926466
              ],
              [
                -2.466229385702997,
                42.447938523673294
              ],
              [
                -2.4662620816282503,
                42.446795850774684
              ],
              [
                -2.470755432576707,
                42.44685282640206
              ],
              [
                -2.4709323510819523,
                42.44792783418366
              ],
              [
                -2.4709950066630038,
                42.44974375398492
              ],
              [
                -2.4738635365447217,
                42.449607791694824
              ],
              [
                -2.474078379359484,
                42.45314427748364
              ],
              [
                -2.4767802117768487,
                42.45321931467436
              ],
              [
                -2.4746925749362116,
                42.456105672782826
              ],
              [
                -2.4720777269079086,
                42.45597968027745
              ],
              [
                -2.4693553330049562,
                42.455952717684056
              ],
              [
                -2.4667086677636187,
                42.455926439052185
              ],
              [
                -2.463830367093983,
                42.45580068043315
              ],
              [
                -2.461770355284083,
                42.455745347690005
              ],
              [
                -2.4594852045254423,
                42.45536931460352
              ],
              [
                -2.457336605234602,
                42.45501195739787
              ],
              [
                -2.4573420721259076,
                42.45498305628404
              ]
            ]
          ]
        ]
      },
      "geometry_name": "geom",
      "properties": {
        "id": 19688941,
        "cod_barrio": "11",
        "descripcio": "La Cava-Fardachón",
        "fme_geomat": null
      }
    },
    {
      "type": "Feature",
      "id": "barrio_contorno.6",
      "geometry": {
        "type": "MultiPolygon",
        "coordinates": [
          [
            [
              [
                -2.4386660874385258,
                42.433733948693934
              ],
              [
                -2.4394895539497523,
                42.434028978327184
              ],
              [
                -2.442082366635279,
                42.43463737058024
              ],
              [
                -2.447627727119778,
                42.438211730325435
              ],
              [
                -2.4498766683559197,
                42.43924111726628
              ],
              [
                -2.452528002169909,
                42.43985767718248
              ],
              [
                -2.4535828846255656,
                42.44018514115355
              ],
              [
                -2.45590080337279,
                42.44101057393426
              ],
              [
                -2.458487416699249,
                42.441066285357245
              ],
              [
                -2.4600739383371226,
                42.440374881655686
              ],
              [
                -2.4592675247333005,
                42.44407260943401
              ],
              [
                -2.4580539027961663,
                42.45145593355937
              ],
              [
                -2.4573366053901045,
                42.455011939386864
              ],
              [
                -2.4464559989449226,
                42.45330738756124
              ],
              [
                -2.445485869373466,
                42.45319353769824
              ],
              [
                -2.4386716392896104,
                42.453744736162406
              ],
              [
                -2.4303121474871467,
                42.45419046958175
              ],
              [
                -2.4299918416423303,
                42.454267732918176
              ],
              [
                -2.429636350527791,
                42.4509837141344
              ],
              [
                -2.429440728580128,
                42.44917637855676
              ],
              [
                -2.4269266935591527,
                42.448779743400785
              ],
              [
                -2.4276259259041537,
                42.44798989664818
              ],
              [
                -2.4279438098809725,
                42.44712381705185
              ],
              [
                -2.428924369581831,
                42.445811815409634
              ],
              [
                -2.4292007749391114,
                42.4443412906919
              ],
              [
                -2.4299362423118143,
                42.44326383415688
              ],
              [
                -2.430261530695362,
                42.44216881742129
              ],
              [
                -2.4306356984870257,
                42.44169561373862
              ],
              [
                -2.4306878774614344,
                42.440182876267635
              ],
              [
                -2.431114569339877,
                42.43972968171652
              ],
              [
                -2.431923056427654,
                42.436478558474384
              ],
              [
                -2.432849714268644,
                42.435502048972424
              ],
              [
                -2.432834927846715,
                42.43456255700463
              ],
              [
                -2.43360089900107,
                42.433208698346206
              ],
              [
                -2.4336328568118546,
                42.43196153275063
              ],
              [
                -2.4386660874385258,
                42.433733948693934
              ]
            ]
          ]
        ]
      },
      "geometry_name": "geom",
      "properties": {
        "id": 19688948,
        "cod_barrio": "10",
        "descripcio": "Sur-Montesoria",
        "fme_geomat": null
      }
    },
    {
      "type": "Feature",
      "id": "barrio_contorno.7",
      "geometry": {
        "type": "MultiPolygon",
        "coordinates": [
          [
            [
              [
                -2.4628169471781827,
                42.46754139995318
              ],
              [
                -2.463142538918611,
                42.46764452997225
              ],
              [
                -2.463427708553755,
                42.46786749140066
              ],
              [
                -2.467469427392465,
                42.46819943114212
              ],
              [
                -2.46582971703283,
                42.474041117611954
              ],
              [
                -2.4612559003002965,
                42.47728866494404
              ],
              [
                -2.4605129156759293,
                42.47481926966919
              ],
              [
                -2.4585549830155973,
                42.471134248542704
              ],
              [
                -2.4583249328739836,
                42.46983929433742
              ],
              [
                -2.4583249214087592,
                42.469839213230316
              ],
              [
                -2.460341375802045,
                42.47085943831774
              ],
              [
                -2.4619678528708775,
                42.46876740630669
              ],
              [
                -2.462122051790983,
                42.46734193860026
              ],
              [
                -2.4628169471781827,
                42.46754139995318
              ]
            ]
          ]
        ]
      },
      "geometry_name": "geom",
      "properties": {
        "id": 19688955,
        "cod_barrio": "19",
        "descripcio": "El Cubo",
        "fme_geomat": null
      }
    },
    {
      "type": "Feature",
      "id": "barrio_contorno.8",
      "geometry": {
        "type": "MultiPolygon",
        "coordinates": [
          [
            [
              [
                -2.4637186808144995,
                42.47999543996923
              ],
              [
                -2.464503050358599,
                42.47852096378172
              ],
              [
                -2.4612559003002965,
                42.47728866494404
              ],
              [
                -2.4635698416919296,
                42.47564182373895
              ],
              [
                -2.4658297292743323,
                42.47404110866313
              ],
              [
                -2.46619633561807,
                42.47272097766958
              ],
              [
                -2.4675286761197586,
                42.472457971098294
              ],
              [
                -2.4682503808322664,
                42.474890947703535
              ],
              [
                -2.4690752301194516,
                42.47609837191362
              ],
              [
                -2.4694762254523313,
                42.476223807455455
              ],
              [
                -2.469578755980769,
                42.4764431159372
              ],
              [
                -2.479610026736668,
                42.481710934545504
              ],
              [
                -2.4766698283837183,
                42.48589929951485
              ],
              [
                -2.474220042079651,
                42.485231559436265
              ],
              [
                -2.47225930028927,
                42.48445865188136
              ],
              [
                -2.468713081363633,
                42.48291475530109
              ],
              [
                -2.4663477467268886,
                42.4816206095678
              ],
              [
                -2.4633362524188045,
                42.480363890472375
              ],
              [
                -2.4637186808144995,
                42.47999543996923
              ]
            ]
          ]
        ]
      },
      "geometry_name": "geom",
      "properties": {
        "id": 19688962,
        "cod_barrio": "23",
        "descripcio": "Carretera del Cortijo",
        "fme_geomat": null
      }
    },
    {
      "type": "Feature",
      "id": "barrio_contorno.9",
      "geometry": {
        "type": "MultiPolygon",
        "coordinates": [
          [
            [
              [
                -2.4605934313603357,
                42.45930620076161
              ],
              [
                -2.461033255432603,
                42.4595101790122
              ],
              [
                -2.461448454357828,
                42.4597407261178
              ],
              [
                -2.461836108316039,
                42.45999622095339
              ],
              [
                -2.462193491076357,
                42.46027486694868
              ],
              [
                -2.462518089167782,
                42.460574704715285
              ],
              [
                -2.462807619557407,
                42.460893625818855
              ],
              [
                -2.4630600457116776,
                42.461229387599055
              ],
              [
                -2.4632735919276874,
                42.46157962893461
              ],
              [
                -2.4634467558332784,
                42.46194188684201
              ],
              [
                -2.4635783189679943,
                42.462313613790734
              ],
              [
                -2.4636673553697968,
                42.462692195615205
              ],
              [
                -2.4637132381067812,
                42.46307496989579
              ],
              [
                -2.463282142261202,
                42.46706126852543
              ],
              [
                -2.4634276839186815,
                42.46786752730892
              ],
              [
                -2.4631425142834655,
                42.46764456588044
              ],
              [
                -2.4630094702707748,
                42.46760242545838
              ],
              [
                -2.4628169225429026,
                42.46754143586129
              ],
              [
                -2.462404173515578,
                42.46742296437549
              ],
              [
                -2.462122014991788,
                42.46734197445115
              ],
              [
                -2.461967816070752,
                42.46876744215753
              ],
              [
                -2.4603413389997715,
                42.47085947416801
              ],
              [
                -2.4582912745120167,
                42.469822249217636
              ],
              [
                -2.4562859623934608,
                42.46902337860891
              ],
              [
                -2.4538419761340005,
                42.4682605233279
              ],
              [
                -2.453255698648563,
                42.46800152852191
              ],
              [
                -2.4523815629065986,
                42.46847357799383
              ],
              [
                -2.451725319605856,
                42.468285792883854
              ],
              [
                -2.4516567299789807,
                42.468076203837306
              ],
              [
                -2.4514628272677954,
                42.46793605391433
              ],
              [
                -2.450383987854844,
                42.46720286726483
              ],
              [
                -2.450195792805232,
                42.46670997265518
              ],
              [
                -2.4501208567745603,
                42.46606855552967
              ],
              [
                -2.450102967012561,
                42.46575547878925
              ],
              [
                -2.449979849112109,
                42.46567027764748
              ],
              [
                -2.4512411775007226,
                42.46453441171998
              ],
              [
                -2.45084694369004,
                42.46402935499152
              ],
              [
                -2.451013045451535,
                42.46357854985988
              ],
              [
                -2.451561255982308,
                42.462090679670496
              ],
              [
                -2.4521437215920017,
                42.45893484224957
              ],
              [
                -2.452650702507589,
                42.45777984306512
              ],
              [
                -2.460593273949472,
                42.45930611896765
              ],
              [
                -2.4605934313603357,
                42.45930620076161
              ]
            ]
          ]
        ]
      },
      "geometry_name": "geom",
      "properties": {
        "id": 19688969,
        "cod_barrio": "20",
        "descripcio": "Zona Oeste (AVEZO)",
        "fme_geomat": null
      }
    },
    {
      "type": "Feature",
      "id": "barrio_contorno.10",
      "geometry": {
        "type": "MultiPolygon",
        "coordinates": [
          [
            [
              [
                -2.458661866770245,
                42.48205451866058
              ],
              [
                -2.4566351586848603,
                42.48101969961652
              ],
              [
                -2.457319048392035,
                42.480507524656986
              ],
              [
                -2.458041819108214,
                42.47996623330795
              ],
              [
                -2.456116294358443,
                42.478613480420705
              ],
              [
                -2.45419853248809,
                42.47725473399463
              ],
              [
                -2.453826325216166,
                42.47688965473141
              ],
              [
                -2.4527398776774976,
                42.47570764690219
              ],
              [
                -2.4527220768163236,
                42.47568837937821
              ],
              [
                -2.453933783182124,
                42.474644226065024
              ],
              [
                -2.4528679097902484,
                42.47393535111678
              ],
              [
                -2.452474537715169,
                42.473726589448006
              ],
              [
                -2.450747269911259,
                42.47305031363206
              ],
              [
                -2.4482708924821046,
                42.47190706432642
              ],
              [
                -2.447859560073421,
                42.4728258362866
              ],
              [
                -2.4474795701546275,
                42.47318258341652
              ],
              [
                -2.4472106748389346,
                42.47319726328492
              ],
              [
                -2.4456370285621163,
                42.47291907196314
              ],
              [
                -2.445807351965794,
                42.47239660870127
              ],
              [
                -2.445778406392331,
                42.472340632249086
              ],
              [
                -2.4457409198815383,
                42.472319251122585
              ],
              [
                -2.445487555163082,
                42.4722520935272
              ],
              [
                -2.4449720276077165,
                42.47262631440458
              ],
              [
                -2.444812439137997,
                42.47272891102573
              ],
              [
                -2.444885402155137,
                42.47306793071552
              ],
              [
                -2.4450120515374083,
                42.47332705794694
              ],
              [
                -2.4451284240940345,
                42.47343449420931
              ],
              [
                -2.4451929310326537,
                42.47357972915929
              ],
              [
                -2.4453735834284296,
                42.47410076528072
              ],
              [
                -2.4454107223406853,
                42.47451985360821
              ],
              [
                -2.445375977672853,
                42.474632835382806
              ],
              [
                -2.4451623589595237,
                42.47495839076138
              ],
              [
                -2.4451109640984203,
                42.47518508114951
              ],
              [
                -2.4451601223209023,
                42.47545947615235
              ],
              [
                -2.4451059292550674,
                42.47598631894909
              ],
              [
                -2.4490211416983945,
                42.47713141947953
              ],
              [
                -2.4477464511429696,
                42.478775062198714
              ],
              [
                -2.4476894615013336,
                42.478819636845095
              ],
              [
                -2.44365799457538,
                42.47897649167774
              ],
              [
                -2.4338772414615,
                42.478451871675276
              ],
              [
                -2.4338145062561276,
                42.47844849978463
              ],
              [
                -2.433829501290964,
                42.477632686622734
              ],
              [
                -2.4338737127624475,
                42.47522620134851
              ],
              [
                -2.4338737131683006,
                42.47522615632103
              ],
              [
                -2.4338738513385336,
                42.47521892528243
              ],
              [
                -2.4338738518255547,
                42.47521887124966
              ],
              [
                -2.4338753582525388,
                42.47513677208819
              ],
              [
                -2.4353732164553654,
                42.474704385688206
              ],
              [
                -2.436502969717982,
                42.47380632255
              ],
              [
                -2.436633914894291,
                42.472608913667734
              ],
              [
                -2.4366510013131224,
                42.472593255366256
              ],
              [
                -2.4366764285949154,
                42.47256994703247
              ],
              [
                -2.4392294945329747,
                42.47083641463111
              ],
              [
                -2.439383791932107,
                42.470693336423864
              ],
              [
                -2.439687404527404,
                42.470411802055516
              ],
              [
                -2.439930824914464,
                42.47018608844217
              ],
              [
                -2.4391948852660814,
                42.46961553322192
              ],
              [
                -2.438947047293166,
                42.4692543549215
              ],
              [
                -2.4389423280765716,
                42.46924747833877
              ],
              [
                -2.4389244240310726,
                42.46922137268099
              ],
              [
                -2.4398470275334954,
                42.469120066146424
              ],
              [
                -2.4400043581346753,
                42.46910278714251
              ],
              [
                -2.4417497493338858,
                42.46903126619715
              ],
              [
                -2.443196989989805,
                42.46891139498683
              ],
              [
                -2.4448158915652183,
                42.46913669535957
              ],
              [
                -2.445554926135151,
                42.46925561118775
              ],
              [
                -2.4467885880095985,
                42.46915297924218
              ],
              [
                -2.447442375282182,
                42.469144965667994
              ],
              [
                -2.4481227874984692,
                42.469166354717146
              ],
              [
                -2.4487920341168934,
                42.469115548844975
              ],
              [
                -2.4494487468224846,
                42.46914842463854
              ],
              [
                -2.4510049328582495,
                42.468970025517
              ],
              [
                -2.452050821660753,
                42.468638831444814
              ],
              [
                -2.452386108013655,
                42.46847128519505
              ],
              [
                -2.453209830905191,
                42.468026283056545
              ],
              [
                -2.453209879795183,
                42.46802625627201
              ],
              [
                -2.4532494902513315,
                42.46800485810456
              ],
              [
                -2.4532557354531788,
                42.4680014926738
              ],
              [
                -2.4536368480458974,
                42.468169846997874
              ],
              [
                -2.453637357043465,
                42.46817006556563
              ],
              [
                -2.4538420129384364,
                42.468260487479625
              ],
              [
                -2.4539097484958106,
                42.468280911378244
              ],
              [
                -2.453909906233358,
                42.468280957159145
              ],
              [
                -2.4547052774463167,
                42.468520797394916
              ],
              [
                -2.4562859991969606,
                42.46902334276001
              ],
              [
                -2.456297814815673,
                42.469027100231514
              ],
              [
                -2.4562985547880225,
                42.4690273378949
              ],
              [
                -2.456579837548761,
                42.46911675848933
              ],
              [
                -2.45658690995829,
                42.46911900747038
              ],
              [
                -2.45662270907117,
                42.469131758424545
              ],
              [
                -2.4566231698986356,
                42.4691319227153
              ],
              [
                -2.4566240308896936,
                42.46913223299743
              ],
              [
                -2.457242682646193,
                42.46935269255685
              ],
              [
                -2.4577271245703933,
                42.469526998101884
              ],
              [
                -2.4577597093915577,
                42.46953872483317
              ],
              [
                -2.457759891307672,
                42.46953878873502
              ],
              [
                -2.457842293366971,
                42.46956842967798
              ],
              [
                -2.458316157497546,
                42.46978905402777
              ],
              [
                -2.4583267761892724,
                42.46984983093556
              ],
              [
                -2.4583340908101765,
                42.46989172488543
              ],
              [
                -2.4583341023530707,
                42.46989179698712
              ],
              [
                -2.4584607263073455,
                42.47061679313315
              ],
              [
                -2.458460795721608,
                42.470617207732055
              ],
              [
                -2.4584608540584796,
                42.47061749619616
              ],
              [
                -2.45855142751713,
                42.47113605093607
              ],
              [
                -2.4597786418826026,
                42.47344564683217
              ],
              [
                -2.46048848369022,
                42.474781447031454
              ],
              [
                -2.4605015250386235,
                42.47482111629467
              ],
              [
                -2.4607410258402096,
                42.475549684586554
              ],
              [
                -2.4607415357216325,
                42.47555122699145
              ],
              [
                -2.461032392640667,
                42.4765337138664
              ],
              [
                -2.4612421261628463,
                42.47724212085173
              ],
              [
                -2.461269674457824,
                42.47733520903442
              ],
              [
                -2.464503050358599,
                42.47852096378172
              ],
              [
                -2.4637186808144995,
                42.47999543996923
              ],
              [
                -2.463368651187148,
                42.480332674708485
              ],
              [
                -2.4633686143809608,
                42.480332710559665
              ],
              [
                -2.463368577574787,
                42.48033274641084
              ],
              [
                -2.4633621739154465,
                42.48033891247021
              ],
              [
                -2.4633621003030957,
                42.480338984172455
              ],
              [
                -2.4615672137813944,
                42.482068240456314
              ],
              [
                -2.458661866770245,
                42.48205451866058
              ]
            ]
          ]
        ]
      },
      "geometry_name": "geom",
      "properties": {
        "id": 19688976,
        "cod_barrio": "01",
        "descripcio": "San Antonio-Norte",
        "fme_geomat": null
      }
    },
    {
      "type": "Feature",
      "id": "barrio_contorno.11",
      "geometry": {
        "type": "MultiPolygon",
        "coordinates": [
          [
            [
              [
                -2.4289060007257715,
                42.47244526125057
              ],
              [
                -2.429685331658106,
                42.471325108409765
              ],
              [
                -2.4315898795046134,
                42.46857775027957
              ],
              [
                -2.4325717436793304,
                42.46631277054457
              ],
              [
                -2.4335458224407063,
                42.4640655656324
              ],
              [
                -2.438841183911602,
                42.46535623955198
              ],
              [
                -2.441566906700267,
                42.46604783107956
              ],
              [
                -2.440058149405784,
                42.46908638904894
              ],
              [
                -2.4389244240310726,
                42.46922137268099
              ],
              [
                -2.439208082263784,
                42.46963478033591
              ],
              [
                -2.439930824914464,
                42.47018608844217
              ],
              [
                -2.4392716276782602,
                42.47082204923986
              ],
              [
                -2.436633411449392,
                42.47261350419379
              ],
              [
                -2.436504873863755,
                42.47379069770076
              ],
              [
                -2.4354138285877456,
                42.47469179739942
              ],
              [
                -2.4339153365106205,
                42.47512438833627
              ],
              [
                -2.4289060007257715,
                42.47244526125057
              ]
            ]
          ]
        ]
      },
      "geometry_name": "geom",
      "properties": {
        "id": 19688983,
        "cod_barrio": "03",
        "descripcio": "Madre de Dios",
        "fme_geomat": null
      }
    },
    {
      "type": "Feature",
      "id": "barrio_contorno.12",
      "geometry": {
        "type": "MultiPolygon",
        "coordinates": [
          [
            [
              [
                -2.429280516151311,
                42.47190282015601
              ],
              [
                -2.417522487641666,
                42.46676062030432
              ],
              [
                -2.413675256949816,
                42.465575696055694
              ],
              [
                -2.4145842998328995,
                42.46233819376117
              ],
              [
                -2.420371168870599,
                42.464645537511764
              ],
              [
                -2.4222539846009297,
                42.46270288060421
              ],
              [
                -2.4231484389480973,
                42.461538438134255
              ],
              [
                -2.425507346182811,
                42.4585503658226
              ],
              [
                -2.4277294191219903,
                42.45846286702728
              ],
              [
                -2.4288420407798665,
                42.46223967410619
              ],
              [
                -2.4287796855265804,
                42.46289341673258
              ],
              [
                -2.43054323130712,
                42.46333359262536
              ],
              [
                -2.4335529325751883,
                42.464048633661804
              ],
              [
                -2.431590471106343,
                42.468576897653975
              ],
              [
                -2.4306843673964025,
                42.469885161794586
              ],
              [
                -2.429280516151311,
                42.47190282015601
              ]
            ]
          ]
        ]
      },
      "geometry_name": "geom",
      "properties": {
        "id": 19688996,
        "cod_barrio": "04",
        "descripcio": "San José",
        "fme_geomat": null
      }
    },
    {
      "type": "Feature",
      "id": "barrio_contorno.13",
      "geometry": {
        "type": "MultiPolygon",
        "coordinates": [
          [
            [
              [
                -2.425507346182811,
                42.4585503658226
              ],
              [
                -2.4222539846009297,
                42.46270288060421
              ],
              [
                -2.420371168870599,
                42.464645537511764
              ],
              [
                -2.4145553860012097,
                42.46232667163188
              ],
              [
                -2.4147816190960105,
                42.45909950927781
              ],
              [
                -2.414819001372673,
                42.45895900093165
              ],
              [
                -2.4164064287263245,
                42.458935888986126
              ],
              [
                -2.4217553313404903,
                42.45872418899673
              ],
              [
                -2.42175787424383,
                42.45872408474876
              ],
              [
                -2.4249984272478433,
                42.45857655174611
              ],
              [
                -2.425507346182811,
                42.4585503658226
              ]
            ]
          ]
        ]
      },
      "geometry_name": "geom",
      "properties": {
        "id": 19689009,
        "cod_barrio": "05",
        "descripcio": "Los Lirios",
        "fme_geomat": null
      }
    },
    {
      "type": "Feature",
      "id": "barrio_contorno.14",
      "geometry": {
        "type": "MultiPolygon",
        "coordinates": [
          [
            [
              [
                -2.4135818020817803,
                42.4603377583337
              ],
              [
                -2.413840654709282,
                42.460577090306835
              ],
              [
                -2.4138381152166315,
                42.46084934366131
              ],
              [
                -2.4121829771354877,
                42.46297491366246
              ],
              [
                -2.4090686014186202,
                42.46517533066159
              ],
              [
                -2.407145371003981,
                42.46509131646758
              ],
              [
                -2.404914022163628,
                42.46424387131215
              ],
              [
                -2.404971785174843,
                42.46103028255358
              ],
              [
                -2.407784251369207,
                42.46120188446366
              ],
              [
                -2.409607810106921,
                42.46131310367215
              ],
              [
                -2.41093001415596,
                42.461393727974865
              ],
              [
                -2.4115739379485346,
                42.46111379105191
              ],
              [
                -2.412289036879243,
                42.46079310353904
              ],
              [
                -2.4132297933280826,
                42.4605039798962
              ],
              [
                -2.4135818020817803,
                42.4603377583337
              ]
            ]
          ]
        ]
      },
      "geometry_name": "geom",
      "properties": {
        "id": 19689016,
        "cod_barrio": "06",
        "descripcio": "Varea",
        "fme_geomat": null
      }
    },
    {
      "type": "Feature",
      "id": "barrio_contorno.15",
      "geometry": {
        "type": "MultiPolygon",
        "coordinates": [
          [
            [
              [
                -2.414819001372673,
                42.45895900093165
              ],
              [
                -2.4148493011116554,
                42.45891817876667
              ],
              [
                -2.4148802412770944,
                42.45887649529607
              ],
              [
                -2.4148802782657555,
                42.458876441449476
              ],
              [
                -2.415214743208945,
                42.4584257368568
              ],
              [
                -2.415214804771991,
                42.45842565611776
              ],
              [
                -2.4181415832386177,
                42.45448135651503
              ],
              [
                -2.4181416572051155,
                42.454481248819675
              ],
              [
                -2.419197788074479,
                42.45305781753261
              ],
              [
                -2.419198169883775,
                42.453057297124495
              ],
              [
                -2.4200249135668646,
                42.45194295799692
              ],
              [
                -2.420034013779827,
                42.451930692958726
              ],
              [
                -2.4200388531885504,
                42.451924179151895
              ],
              [
                -2.420043058351898,
                42.45192577646383
              ],
              [
                -2.420047093932736,
                42.45192730087036
              ],
              [
                -2.4205112114862546,
                42.45210391265868
              ],
              [
                -2.420903322438985,
                42.45225312304071
              ],
              [
                -2.4216342516058633,
                42.45253125073432
              ],
              [
                -2.4217097153272884,
                42.45255996409166
              ],
              [
                -2.4218943211873944,
                42.452630204824395
              ],
              [
                -2.4219161706928545,
                42.4526134739655
              ],
              [
                -2.421928467125247,
                42.4526040617604
              ],
              [
                -2.421939649066199,
                42.45259549949509
              ],
              [
                -2.421944229617448,
                42.45259199227779
              ],
              [
                -2.422131958317917,
                42.45244824987132
              ],
              [
                -2.4224908425593714,
                42.452173451007276
              ],
              [
                -2.4225044739199193,
                42.45216300077939
              ],
              [
                -2.4225130836986213,
                42.45215641580497
              ],
              [
                -2.4225097867892553,
                42.4521406658632
              ],
              [
                -2.4225038096043003,
                42.45211220407894
              ],
              [
                -2.422500967270876,
                42.452098599834635
              ],
              [
                -2.422511309727649,
                42.45207682160749
              ],
              [
                -2.4225650422899934,
                42.451963779901796
              ],
              [
                -2.4228632031618673,
                42.45133648861708
              ],
              [
                -2.422997157250369,
                42.45122245467374
              ],
              [
                -2.423854342051747,
                42.450740005761176
              ],
              [
                -2.423926585457,
                42.450699337913946
              ],
              [
                -2.4239314628343034,
                42.450696588604586
              ],
              [
                -2.423976422355171,
                42.450671282780675
              ],
              [
                -2.4240292417490275,
                42.45064155850631
              ],
              [
                -2.424231950186904,
                42.45052745429615
              ],
              [
                -2.4256285558198343,
                42.449741337061035
              ],
              [
                -2.4257730256318637,
                42.44966001699184
              ],
              [
                -2.4269266935591527,
                42.448779743400785
              ],
              [
                -2.427054584581378,
                42.44880251928844
              ],
              [
                -2.4270579961076475,
                42.448803130731655
              ],
              [
                -2.429440728580128,
                42.44917637855676
              ],
              [
                -2.429636350527791,
                42.4509837141344
              ],
              [
                -2.4296895243109344,
                42.45147496325448
              ],
              [
                -2.429866128977171,
                42.45310647072697
              ],
              [
                -2.4299918416423303,
                42.454267732918176
              ],
              [
                -2.4289041631291486,
                42.45451379982134
              ],
              [
                -2.426808926584105,
                42.45698890898371
              ],
              [
                -2.425507346182811,
                42.4585503658226
              ],
              [
                -2.423379044047946,
                42.45865987144883
              ],
              [
                -2.419080884151723,
                42.4588300747251
              ],
              [
                -2.4164064287263245,
                42.458935888986126
              ],
              [
                -2.414819001372673,
                42.45895900093165
              ]
            ]
          ]
        ]
      },
      "geometry_name": "geom",
      "properties": {
        "id": 19689023,
        "cod_barrio": "07",
        "descripcio": "La Estrella",
        "fme_geomat": null
      }
    },
    {
      "type": "Feature",
      "id": "barrio_contorno.16",
      "geometry": {
        "type": "MultiPolygon",
        "coordinates": [
          [
            [
              [
                -2.4472339931353453,
                42.45713714187079
              ],
              [
                -2.437388053946609,
                42.45786337493866
              ],
              [
                -2.4277294191219903,
                42.45846286702728
              ],
              [
                -2.425507346182811,
                42.4585503658226
              ],
              [
                -2.428125035360988,
                42.45543420975997
              ],
              [
                -2.4289041631291486,
                42.45451379982134
              ],
              [
                -2.4303121474871467,
                42.45419046958175
              ],
              [
                -2.4386716392896104,
                42.453744736162406
              ],
              [
                -2.445485869373466,
                42.45319353769824
              ],
              [
                -2.4464559989449226,
                42.45330738756124
              ],
              [
                -2.448386940398535,
                42.45360997404725
              ],
              [
                -2.447804965008519,
                42.45539326063984
              ],
              [
                -2.4472339931353453,
                42.45713714187079
              ]
            ]
          ]
        ]
      },
      "geometry_name": "geom",
      "properties": {
        "id": 19689030,
        "cod_barrio": "08",
        "descripcio": "Cascajos",
        "fme_geomat": null
      }
    },
    {
      "type": "Feature",
      "id": "barrio_contorno.17",
      "geometry": {
        "type": "MultiPolygon",
        "coordinates": [
          [
            [
              [
                -2.441623753572831,
                42.45755105812519
              ],
              [
                -2.4417915417721523,
                42.45848508551199
              ],
              [
                -2.440853031974914,
                42.46096620372534
              ],
              [
                -2.4404381427953847,
                42.46162892265252
              ],
              [
                -2.4398513048167905,
                42.46298640649034
              ],
              [
                -2.438841183911602,
                42.46535623955198
              ],
              [
                -2.4335529325751883,
                42.464048633661804
              ],
              [
                -2.4287796855265804,
                42.46289341673258
              ],
              [
                -2.4288420407798665,
                42.46223967410619
              ],
              [
                -2.4277294191219903,
                42.45846286702728
              ],
              [
                -2.4317285192717475,
                42.45821474813238
              ],
              [
                -2.4368519477733304,
                42.45789666677181
              ],
              [
                -2.4416066788384483,
                42.45755231682394
              ],
              [
                -2.441623753572831,
                42.45755105812519
              ]
            ]
          ]
        ]
      },
      "geometry_name": "geom",
      "properties": {
        "id": 19689037,
        "cod_barrio": "09",
        "descripcio": "Lobete",
        "fme_geomat": null
      }
    },
    {
      "type": "Feature",
      "id": "barrio_contorno.18",
      "geometry": {
        "type": "MultiPolygon",
        "coordinates": [
          [
            [
              [
                -2.444030554408143,
                42.465239893120376
              ],
              [
                -2.4470272721177717,
                42.45791003150239
              ],
              [
                -2.4472339931353453,
                42.45713714187079
              ],
              [
                -2.448572194935649,
                42.45708668830662
              ],
              [
                -2.4498123748997647,
                42.45723135700422
              ],
              [
                -2.4526507025860202,
                42.457779834059586
              ],
              [
                -2.4521437583918813,
                42.458934806401835
              ],
              [
                -2.4515612927843873,
                42.46209064382289
              ],
              [
                -2.45084698049367,
                42.46402931914416
              ],
              [
                -2.451241214304429,
                42.46453437587249
              ],
              [
                -2.450005559149627,
                42.46564712978395
              ],
              [
                -2.449162415302494,
                42.4651338694248
              ],
              [
                -2.4466754608721035,
                42.46531173476783
              ],
              [
                -2.444030554408143,
                42.465239893120376
              ]
            ]
          ]
        ]
      },
      "geometry_name": "geom",
      "properties": {
        "id": 19689044,
        "cod_barrio": "21",
        "descripcio": "Centro",
        "fme_geomat": null
      }
    },
    {
      "type": "Feature",
      "id": "barrio_contorno.19",
      "geometry": {
        "type": "MultiPolygon",
        "coordinates": [
          [
            [
              [
                -2.4605934681556314,
                42.45930616491114
              ],
              [
                -2.460593273949472,
                42.45930611896765
              ],
              [
                -2.4609828254783075,
                42.457979075659324
              ],
              [
                -2.4613972624811504,
                42.45719198000216
              ],
              [
                -2.4615441506463593,
                42.45675260527202
              ],
              [
                -2.461770355284083,
                42.455745347690005
              ],
              [
                -2.463830367093983,
                42.45580068043315
              ],
              [
                -2.4667086677636187,
                42.455926439052185
              ],
              [
                -2.4720777269079086,
                42.45597968027745
              ],
              [
                -2.4733555266058747,
                42.458181659337235
              ],
              [
                -2.4744392571768556,
                42.4605004679316
              ],
              [
                -2.4637132879107675,
                42.4630748350402
              ],
              [
                -2.4636673914086855,
                42.46269206999254
              ],
              [
                -2.463578343691351,
                42.46231349800425
              ],
              [
                -2.4634467717284863,
                42.46194178124862
              ],
              [
                -2.4632736014825425,
                42.46157953364564
              ],
              [
                -2.4630600513773837,
                42.46122930248332
              ],
              [
                -2.462807623712436,
                42.46089355050996
              ],
              [
                -2.4625180940829727,
                42.46057463862047
              ],
              [
                -2.4621934988815464,
                42.460274809261044
              ],
              [
                -2.461836120968685,
                42.45999617066655
              ],
              [
                -2.4614484736139146,
                42.45974068204278
              ],
              [
                -2.4610332828201162,
                42.459510139796606
              ],
              [
                -2.4605934681556314,
                42.45930616491114
              ]
            ]
          ]
        ]
      },
      "geometry_name": "geom",
      "properties": {
        "id": 19689051,
        "cod_barrio": "13",
        "descripcio": "Siete Infantes",
        "fme_geomat": null
      }
    },
    {
      "type": "Feature",
      "id": "barrio_contorno.20",
      "geometry": {
        "type": "MultiPolygon",
        "coordinates": [
          [
            [
              [
                -2.4472339931353453,
                42.45713714187079
              ],
              [
                -2.448386940398535,
                42.45360997404725
              ],
              [
                -2.4572925823011253,
                42.4550046342949
              ],
              [
                -2.4616778526032173,
                42.45573395308829
              ],
              [
                -2.461770355284083,
                42.455745347690005
              ],
              [
                -2.4615441506463593,
                42.45675260527202
              ],
              [
                -2.4613972624811504,
                42.45719198000216
              ],
              [
                -2.460973047985871,
                42.4579775437038
              ],
              [
                -2.460593273949472,
                42.45930611896765
              ],
              [
                -2.456567001897028,
                42.4585324953838
              ],
              [
                -2.4526507025860202,
                42.457779834059586
              ],
              [
                -2.4510857416564225,
                42.45747737062449
              ],
              [
                -2.4498123748997647,
                42.45723135700422
              ],
              [
                -2.448572194935649,
                42.45708668830662
              ],
              [
                -2.4472339931353453,
                42.45713714187079
              ]
            ]
          ]
        ]
      },
      "geometry_name": "geom",
      "properties": {
        "id": 19689058,
        "cod_barrio": "12",
        "descripcio": "Las Gaunas",
        "fme_geomat": null
      }
    },
    {
      "type": "Feature",
      "id": "barrio_contorno.21",
      "geometry": {
        "type": "MultiPolygon",
        "coordinates": [
          [
            [
              [
                -2.4501583614125724,
                42.46638922825939
              ],
              [
                -2.4501958174473657,
                42.4667099367499
              ],
              [
                -2.4503840246606154,
                42.46720283141775
              ],
              [
                -2.4511397094505205,
                42.46771468222139
              ],
              [
                -2.4516612382970795,
                42.46807255100138
              ],
              [
                -2.451725344247745,
                42.46828575697815
              ],
              [
                -2.452381599711989,
                42.46847354214611
              ],
              [
                -2.452050821660753,
                42.468638831444814
              ],
              [
                -2.4510049328582495,
                42.468970025517
              ],
              [
                -2.4494487468224846,
                42.46914842463854
              ],
              [
                -2.4487920341168934,
                42.469115548844975
              ],
              [
                -2.4481227874984692,
                42.469166354717146
              ],
              [
                -2.4467885880095985,
                42.46915297924218
              ],
              [
                -2.445554926135151,
                42.46925561118775
              ],
              [
                -2.443196989989805,
                42.46891139498683
              ],
              [
                -2.4417497493338858,
                42.46903126619715
              ],
              [
                -2.440058149405784,
                42.46908638904894
              ],
              [
                -2.441566906700267,
                42.46604783107956
              ],
              [
                -2.4424076709911073,
                42.46617528707529
              ],
              [
                -2.442911463015011,
                42.46625331429348
              ],
              [
                -2.4431003740443327,
                42.46628144813928
              ],
              [
                -2.443132950587534,
                42.46628674878272
              ],
              [
                -2.4433441983285245,
                42.46631859310497
              ],
              [
                -2.443450346126038,
                42.4661476723677
              ],
              [
                -2.4440143193844728,
                42.465239499162585
              ],
              [
                -2.444030554408143,
                42.465239893120376
              ],
              [
                -2.445248551651153,
                42.46527301054235
              ],
              [
                -2.4466754608721035,
                42.46531173476783
              ],
              [
                -2.4467121696411693,
                42.46530773324012
              ],
              [
                -2.446712242699505,
                42.4653077245869
              ],
              [
                -2.4473950065831205,
                42.46526027920303
              ],
              [
                -2.4473959072910767,
                42.46526021149844
              ],
              [
                -2.4479189336954468,
                42.46522280882327
              ],
              [
                -2.4485676891388852,
                42.465176408432875
              ],
              [
                -2.448570184244937,
                42.465176231313016
              ],
              [
                -2.4491107360026843,
                42.465137565632155
              ],
              [
                -2.4491222378347057,
                42.46513674734103
              ],
              [
                -2.4491222669773314,
                42.46513619812138
              ],
              [
                -2.449162415302494,
                42.4651338694248
              ],
              [
                -2.4498958207140116,
                42.465612056530475
              ],
              [
                -2.449979885917203,
                42.46567024180043
              ],
              [
                -2.449980708051695,
                42.465670813117114
              ],
              [
                -2.450071918942582,
                42.4657339408228
              ],
              [
                -2.450071991606876,
                42.465733977195015
              ],
              [
                -2.450093415962728,
                42.46574881363225
              ],
              [
                -2.4501030038176475,
                42.465755442942246
              ],
              [
                -2.4501208612670564,
                42.46606804221525
              ],
              [
                -2.450120893579809,
                42.466068519682665
              ],
              [
                -2.45014113772848,
                42.466241854212456
              ],
              [
                -2.4501583614125724,
                42.46638922825939
              ]
            ]
          ]
        ]
      },
      "geometry_name": "geom",
      "properties": {
        "id": 19689065,
        "cod_barrio": "02",
        "descripcio": "Casco Antiguo",
        "fme_geomat": null
      }
    },
    {
      "type": "Feature",
      "id": "barrio_contorno.22",
      "geometry": {
        "type": "MultiPolygon",
        "coordinates": [
          [
            [
              [
                -2.457319048392035,
                42.480507524656986
              ],
              [
                -2.4566351586848603,
                42.48101969961652
              ],
              [
                -2.4490211416983945,
                42.47713141947953
              ],
              [
                -2.4451059292550674,
                42.47598631894909
              ],
              [
                -2.4451601223209023,
                42.47545947615235
              ],
              [
                -2.4451109640984203,
                42.47518508114951
              ],
              [
                -2.4451623589595237,
                42.47495839076138
              ],
              [
                -2.445375977672853,
                42.474632835382806
              ],
              [
                -2.4454251637471174,
                42.47447289476951
              ],
              [
                -2.4453735834284296,
                42.47410076528072
              ],
              [
                -2.4451929310326537,
                42.47357972915929
              ],
              [
                -2.4451284240940345,
                42.47343449420931
              ],
              [
                -2.4450120515374083,
                42.47332705794694
              ],
              [
                -2.444885402155137,
                42.47306793071552
              ],
              [
                -2.444812439137997,
                42.47272891102573
              ],
              [
                -2.4449720276077165,
                42.47262631440458
              ],
              [
                -2.445487555163082,
                42.4722520935272
              ],
              [
                -2.4457409198815383,
                42.472319251122585
              ],
              [
                -2.445778406392331,
                42.472340632249086
              ],
              [
                -2.445807351965794,
                42.47239660870127
              ],
              [
                -2.4456370285621163,
                42.47291907196314
              ],
              [
                -2.4472106748389346,
                42.47319726328492
              ],
              [
                -2.4474795701546275,
                42.47318258341652
              ],
              [
                -2.447859560073421,
                42.4728258362866
              ],
              [
                -2.4482708924821046,
                42.47190706432642
              ],
              [
                -2.450747269911259,
                42.47305031363206
              ],
              [
                -2.452474537715169,
                42.473726589448006
              ],
              [
                -2.4528679097902484,
                42.47393535111678
              ],
              [
                -2.453933783182124,
                42.474644226065024
              ],
              [
                -2.4527220768163236,
                42.47568837937821
              ],
              [
                -2.4527398776774976,
                42.47570764690219
              ],
              [
                -2.453826325216166,
                42.47688965473141
              ],
              [
                -2.45419853248809,
                42.47725473399463
              ],
              [
                -2.456116294358443,
                42.478613480420705
              ],
              [
                -2.458041819108214,
                42.47996623330795
              ],
              [
                -2.457319048392035,
                42.480507524656986
              ]
            ]
          ]
        ]
      },
      "geometry_name": "geom",
      "properties": {
        "id": 19689072,
        "cod_barrio": "24",
        "descripcio": "El Campillo",
        "fme_geomat": null
      }
    },
    {
      "type": "Feature",
      "id": "barrio_contorno.23",
      "geometry": {
        "type": "MultiPolygon",
        "coordinates": [
          [
            [
              [
                -2.441625006385521,
                42.45756062850249
              ],
              [
                -2.4472339931353453,
                42.45713714187079
              ],
              [
                -2.4471023060912933,
                42.45751822218054
              ],
              [
                -2.4469710920942545,
                42.457897881661154
              ],
              [
                -2.445830286049556,
                42.460730718031584
              ],
              [
                -2.4440143193844728,
                42.465239499162585
              ],
              [
                -2.4433441983285245,
                42.46631859310497
              ],
              [
                -2.441566906700267,
                42.46604783107956
              ],
              [
                -2.438841183911602,
                42.46535623955198
              ],
              [
                -2.440122323561842,
                42.46235055424464
              ],
              [
                -2.4404381427953847,
                42.46162892265252
              ],
              [
                -2.440853031974914,
                42.46096620372534
              ],
              [
                -2.4417915417721523,
                42.45848508551199
              ],
              [
                -2.441625006385521,
                42.45756062850249
              ]
            ]
          ]
        ]
      },
      "geometry_name": "geom",
      "properties": {
        "id": 19689079,
        "cod_barrio": "22",
        "descripcio": "El Carmen",
        "fme_geomat": null
      }
    },
    {
      "type": "Feature",
      "id": "barrio_contorno.24",
      "geometry": {
        "type": "MultiPolygon",
        "coordinates": [
          [
            [
              [
                -2.4753268075235817,
                42.46278647765407
              ],
              [
                -2.472264225548379,
                42.46358538951724
              ],
              [
                -2.4688393776574133,
                42.464478679123296
              ],
              [
                -2.467469427392465,
                42.46819943114212
              ],
              [
                -2.463427708553755,
                42.46786749140066
              ],
              [
                -2.4632818537127976,
                42.467059447983246
              ],
              [
                -2.46344745308047,
                42.46555980480913
              ],
              [
                -2.4637132879107675,
                42.4630748350402
              ],
              [
                -2.474907587351918,
                42.460388041230246
              ],
              [
                -2.4753653320406137,
                42.461505482908215
              ],
              [
                -2.4751597460799903,
                42.46240782504325
              ],
              [
                -2.4753268075235817,
                42.46278647765407
              ]
            ]
          ]
        ]
      },
      "geometry_name": "geom",
      "properties": {
        "id": 19689086,
        "cod_barrio": "18",
        "descripcio": "P.de los Enamorados-San Lázaro",
        "fme_geomat": null
      }
    }
  ]
}